[{"OBJECT_NAME":"CSTP 1.2 (STC 1.2)","OBJECT_ID":"2023-091W","EPOCH":"2026-03-09T23:12:27.821952","MEAN_MOTION":15.2718076,"ECCENTRICITY":0.00204388,"INCLINATION":97.5258,"RA_OF_ASC_NODE":134.3262,"ARG_OF_PERICENTER":84.9592,"MEAN_ANOMALY":275.3979,"EPHEMERIS_TYPE":0,"CLASSIFICATION_TYPE":"U","NORAD_CAT_ID":57186,"ELEMENT_SET_NO":999,"REV_AT_EPOCH":14930,"BSTAR":0.00043035718,"MEAN_MOTION_DOT":0.00011466,"MEAN_MOTION_DDOT":0},{"OBJECT_NAME":"STARLINK-35504","OBJECT_ID":"2025-253G","EPOCH":"2026-03-09T17:06:13.040352","MEAN_MOTION":15.27623063,"ECCENTRICITY":9.282e-5,"INCLINATION":43.0012,"RA_OF_ASC_NODE":212.755,"ARG_OF_PERICENTER":285.3928,"MEAN_ANOMALY":74.6821,"EPHEMERIS_TYPE":0,"CLASSIFICATION_TYPE":"U","NORAD_CAT_ID":66325,"ELEMENT_SET_NO":999,"REV_AT_EPOCH":2024,"BSTAR":0.0013791978,"MEAN_MOTION_DOT":0.00037936,"MEAN_MOTION_DDOT":0}]
